NORAD_CAT_ID,OBJECT_NAME,OBJECT_TYPE,EPOCH,MEAN_MOTION,ECCENTRICITY,INCLINATION,RA_OF_ASC_NODE,ARG_OF_PERICENTER,MEAN_ANOMALY,BSTAR,MEAN_MOTION_DOT,MEAN_MOTION_DDOT,TLE_LINE0,TLE_LINE1,TLE_LINE2,SEMIMAJOR_AXIS,PERIOD,APOGEE,PERIGEE,DECAYED
49138.0,STARLINK-3058,PAYLOAD,2021-11-25 06:00:00,15.47762783,0.0003456,70.0001,284.8995,274.7049,127.536,-0.013747,-0.00658231,0.0,0 STARLINK-3058,1 49138U 21082J   21329.25001157 -.00658231  00000-0 -13747-1 0  9996,2 49138  70.0001 284.8995 0003456 274.7049 127.5360 15.47762783 11401,6801.409000000002,93.038,425.625,420.924,0.0
49138.0,STARLINK-3058,PAYLOAD,2021-11-25 14:00:01,15.47294544,0.0003428,69.9998,283.994,265.6813,193.0364,-0.013951,-0.00657262,0.0,0 STARLINK-3058,1 49138U 21082J   21329.58334491 -.00657262  00000-0 -13951-1 0  9992,2 49138  69.9998 283.9940 0003428 265.6813 193.0364 15.47294544  3688,6802.781,93.066,426.978,422.314,0.0
49138.0,STARLINK-3058,PAYLOAD,2021-11-25 20:00:01,15.46942253,0.0003466,70.0001,283.3155,273.0869,137.6207,-0.014054,-0.00654313,0.0,0 STARLINK-3058,1 49138U 21082J   21329.83334491 -.00654313  00000-0 -14054-1 0  9999,2 49138  70.0001 283.3155 0003466 273.0869 137.6207 15.46942253  3668,6803.814,93.087,428.037,423.321,0.0
49138.0,STARLINK-3058,PAYLOAD,2021-11-26 06:00:02,15.46358132,0.0003272,70.0001,282.185,276.1528,293.9006,-0.014341,-0.00654267,0.0,0 STARLINK-3058,1 49138U 21082J   21330.25002315 -.00654267  00000-0 -14341-1 0  9991,2 49138  70.0001 282.1850 0003272 276.1528 293.9006 15.46358132 11555,6805.526999999999,93.122,429.619,425.166,0.0
49138.0,STARLINK-3058,PAYLOAD,2021-11-26 14:00:01,15.45892941,0.000331,69.9999,281.2815,263.6664,1.181,-0.014683,-0.00658826,0.0,0 STARLINK-3058,1 49138U 21082J   21330.58335648 -.00658826  00000-0 -14683-1 0  9999,2 49138  69.9999 281.2815 0003310 263.6664   1.1810 15.45892941  3681,6806.893,93.15,431.011,426.505,0.0
49138.0,STARLINK-3058,PAYLOAD,2021-11-26 22:00:00,15.45424854,0.0003383,70.0004,280.3786,270.7438,48.2728,-0.014862,-0.00656425,0.0,0 STARLINK-3058,1 49138U 21082J   21330.91667824 -.00656425  00000-0 -14862-1 0  9992,2 49138  70.0004 280.3786 0003383 270.7438  48.2728 15.45424854  3679,6808.267,93.178,432.435,427.829,0.0
49138.0,STARLINK-3058,PAYLOAD,2021-11-27 06:00:02,15.44956838,0.0003466,70.0002,279.4764,274.978,97.7766,-0.0151,-0.00656346,0.0,0 STARLINK-3058,1 49138U 21082J   21331.25002315 -.00656346  00000-0 -15100-1 0  9996,2 49138  70.0002 279.4764 0003466 274.9780  97.7766 15.44956838 11716,6809.642,93.206,433.867,429.147,0.0
49138.0,STARLINK-3058,PAYLOAD,2021-11-27 14:00:01,15.44488593,0.0003474,70.0001,278.5748,264.3481,161.4552,-0.015325,-0.00655617,0.0,0 STARLINK-3058,1 49138U 21082J   21331.58334491 -.00655617  00000-0 -15325-1 0  9994,2 49138  70.0001 278.5748 0003474 264.3481 161.4552 15.44488593  3695,6811.018,93.235,435.249,430.517,0.0
49138.0,STARLINK-3058,PAYLOAD,2021-11-27 22:00:00,15.44021063,0.0003401,70.0003,277.6738,274.2668,204.0885,-0.015557,-0.00655061,0.0,0 STARLINK-3058,1 49138U 21082J   21331.91667824 -.00655061  00000-0 -15557-1 0  9990,2 49138  70.0003 277.6738 0003401 274.2668 204.0885 15.44021063  3679,6812.393,93.263,436.575,431.941,0.0
49138.0,STARLINK-3058,PAYLOAD,2021-11-28 14:00:01,15.43087374,0.000328,70.0,275.8737,262.7216,319.0552,-0.016117,-0.00657289,0.0,0 STARLINK-3058,1 49138U 21082J   21332.58334491 -.00657289  00000-0 -16117-1 0  9992,2 49138  70.0000 275.8737 0003280 262.7216 319.0552 15.43087374 11911,6815.141,93.319,439.241,434.77,0.0
49138.0,STARLINK-3058,PAYLOAD,2021-11-28 22:00:01,15.42618764,0.0003293,70.0003,274.9747,272.8463,359.8648,-0.016291,-0.00654229,0.0,0 STARLINK-3058,1 49138U 21082J   21332.91668981 -.00654229  00000-0 -16291-1 0  9997,2 49138  70.0003 274.9747 0003293 272.8463 359.8648 15.42618764  3679,6816.521,93.348,440.631,436.141,0.0
49138.0,STARLINK-3058,PAYLOAD,2021-11-29 14:00:01,15.41683003,0.0003489,70.0,273.1785,262.1366,110.5693,-0.0168199999999999,-0.00662387,0.0,0 STARLINK-3058,1 49138U 21082J   21333.58334491 -.00662387  00000-0 -16820-1 0  9999,2 49138  70.0000 273.1785 0003489 262.1366 110.5693 15.41683003  3679,6819.279,93.404,443.523,438.765,0.0
49138.0,STARLINK-3058,PAYLOAD,2021-11-29 22:00:00,15.41216736,0.0003449,70.0002,272.2815,272.8215,149.0719,-0.017121,-0.00663725,0.0,0 STARLINK-3058,1 49138U 21082J   21333.91667824 -.00663725  00000-0 -17121-1 0  9997,2 49138  70.0002 272.2815 0003449 272.8215 149.0719 15.41216736  3684,6820.654,93.433,444.872,440.167,0.0
49138.0,STARLINK-3058,PAYLOAD,2021-11-30 00:00:00,15.4109651,0.0003295,70.0002,272.0565,271.0502,253.0541,-0.017046,-0.00658524,0.0,0 STARLINK-3058,1 49138U 21082J   21334.00001157 -.00658524  00000-0 -17046-1 0  9996,2 49138  70.0002 272.0565 0003295 271.0502 253.0541 15.41096510 12138,6821.009,93.44,445.121,440.626,0.0
49138.0,STARLINK-3058,PAYLOAD,2021-11-30 10:00:00,15.40518051,0.0003413999999999,69.9997,270.9365,265.2155,49.4078,-0.017633,-0.0066759,0.0,0 STARLINK-3058,1 49138U 21082J   21334.41667824 -.00667590  00000-0 -17633-1 0  9995,2 49138  69.9997 270.9365 0003414 265.2155  49.4078 15.40518051  3652,6822.715999999999,93.475,446.911,442.252,0.0
49138.0,STARLINK-3058,PAYLOAD,2021-11-30 22:00:00,15.39813376,0.000326,70.0002,269.5937,272.5085,293.5857,-0.017881,-0.00661773,0.0,0 STARLINK-3058,1 49138U 21082J   21334.91667824 -.00661773  00000-0 -17881-1 0  9992,2 49138  70.0002 269.5937 0003260 272.5085 293.5857 15.39813376  3678,6824.7980000000025,93.518,448.888,444.43800000000016,0.0
49138.0,STARLINK-3058,PAYLOAD,2021-12-01 06:00:00,15.39343349,0.000324,70.0001,268.699,271.1453,341.8955,-0.018037,-0.00657586,0.0,0 STARLINK-3058,1 49138U 21082J   21335.25001157 -.00657586  00000-0 -18037-1 0  9992,2 49138  70.0001 268.6990 0003240 271.1453 341.8955 15.39343349 12324,6826.187,93.546,450.264,445.84,0.0
49138.0,STARLINK-3058,PAYLOAD,2021-12-01 14:00:01,15.38878547,0.0003353,70.0,267.8051,262.5428,36.8822,-0.018474,-0.0066294,0.0,0 STARLINK-3058,1 49138U 21082J   21335.58334491 -.00662940  00000-0 -18474-1 0  9993,2 49138  70.0000 267.8051 0003353 262.5428  36.8822 15.38878547  3677,6827.561,93.575,451.716,447.137,0.0
49138.0,STARLINK-3058,PAYLOAD,2021-12-01 22:00:00,15.38412392,0.0003348,70.0003,266.9117,272.5536,72.6951,-0.018794,-0.00664117,0.0,0 STARLINK-3058,1 49138U 21082J   21335.91667824 -.00664117  00000-0 -18794-1 0  9992,2 49138  70.0003 266.9117 0003348 272.5536  72.6951 15.38412392  3660,6828.94,93.603,453.092,448.519,0.0
49138.0,STARLINK-3058,PAYLOAD,2021-12-02 06:00:00,15.37941584,0.0003452,69.9999,266.019,267.4519,123.0616,-0.018914,-0.00658584,0.0,0 STARLINK-3058,1 49138U 21082J   21336.25001157 -.00658584  00000-0 -18914-1 0  9996,2 49138  69.9999 266.0190 0003452 267.4519 123.0616 15.37941584 12481,6830.334,93.632,454.557,449.841,0.0
49138.0,STARLINK-3058,PAYLOAD,2021-12-02 14:00:01,15.37473782,0.0003455,70.0001,265.127,264.2161,171.0007,-0.01921,-0.0065876999999999,0.0,0 STARLINK-3058,1 49138U 21082J   21336.58334491 -.00658770  00000-0 -19210-1 0  9999,2 49138  70.0001 265.1270 0003455 264.2161 171.0007 15.37473782  3665,6831.72,93.66,455.945,451.224,0.0
49138.0,STARLINK-3058,PAYLOAD,2021-12-02 22:00:00,15.37009169,0.0003377,70.0002,264.2355,275.1371,204.2211,-0.019653,-0.00663514,0.0,0 STARLINK-3058,1 49138U 21082J   21336.91667824 -.00663514  00000-0 -19653-1 0  9998,2 49138  70.0002 264.2355 0003377 275.1371 204.2211 15.37009169  3645,6833.096,93.688,457.269,452.654,0.0
49138.0,STARLINK-3058,PAYLOAD,2021-12-03 06:00:00,15.36535939,0.0003273,69.9999,263.3447,271.5963,251.3457,-0.019639,-0.00653665,0.0,0 STARLINK-3058,1 49138U 21082J   21337.25001157 -.00653665  00000-0 -19639-1 0  9997,2 49138  69.9999 263.3447 0003273 271.5963 251.3457 15.36535939 12633,6834.499,93.717,458.601,454.127,0.0
49138.0,STARLINK-3058,PAYLOAD,2021-12-03 14:00:01,15.36072457,0.0003241,70.0,262.4544,265.3367,300.6248,-0.02014,-0.0065993,0.0,0 STARLINK-3058,1 49138U 21082J   21337.58334491 -.00659930  00000-0 -20140-1 0  9993,2 49138  70.0000 262.4544 0003241 265.3367 300.6248 15.36072457  3661,6835.874,93.746,459.954,455.523,0.0
49138.0,STARLINK-3058,PAYLOAD,2021-12-03 22:00:00,15.35605941,0.0003232,70.0003,261.565,271.6919,336.7298,-0.020496,-0.0066148,0.0,0 STARLINK-3058,1 49138U 21082J   21337.91667824 -.00661480  00000-0 -20496-1 0  9996,2 49138  70.0003 261.5650 0003232 271.6919 336.7298 15.35605941  3658,6837.2580000000025,93.774,461.333,456.913,0.0
49138.0,STARLINK-3058,PAYLOAD,2021-12-04 06:00:00,15.35136221,0.0003341,70.0,260.6759,263.1599,27.1625,-0.020679,-0.00657707,0.0,0 STARLINK-3058,1 49138U 21082J   21338.25001157 -.00657707  00000-0 -20679-1 0  9995,2 49138  70.0000 260.6759 0003341 263.1599  27.1625 15.35136221 12785,6838.653,93.803,462.80300000000005,458.233,0.0
49138.0,STARLINK-3058,PAYLOAD,2021-12-04 22:00:00,15.34204858,0.000341,70.0005,258.9002,268.1719,104.2672,-0.021528,-0.00664189,0.0,0 STARLINK-3058,1 49138U 21082J   21338.91667824 -.00664189  00000-0 -21528-1 0  9993,2 49138  70.0005 258.9002 0003410 268.1719 104.2672 15.34204858  3642,6841.42,93.86,465.61800000000005,460.952,0.0
49138.0,STARLINK-3058,PAYLOAD,2021-12-05 06:00:02,15.33733443,0.000345,70.0,258.013,267.7863,144.9358,-0.021597,-0.00656951,0.0,0 STARLINK-3058,1 49138U 21082J   21339.25002315 -.00656951  00000-0 -21597-1 0  9993,2 49138  70.0000 258.0130 0003450 267.7863 144.9358 15.33733443 12940,6842.821999999999,93.889,467.048,462.326,0.0
49138.0,STARLINK-3058,PAYLOAD,2021-12-05 14:00:01,15.33265496,0.0003416,70.0,257.1268,264.3108,188.005,-0.021915,-0.0065682,0.0,0 STARLINK-3058,1 49138U 21082J   21339.58334491 -.00656820  00000-0 -21915-1 0  9991,2 49138  70.0000 257.1268 0003416 264.3108 188.0050 15.33265496  3664,6844.214,93.917,468.417,463.741,0.0
